[{"OBJECT_NAME":"ONEWEB-0262","OBJECT_ID":"2021-060P","EPOCH":"2025-12-24T05:54:49.939776","MEAN_MOTION":13.16594374,"ECCENTRICITY":0.00014199,"INCLINATION":87.9047,"RA_OF_ASC_NODE":263.6026,"ARG_OF_PERICENTER":63.3672,"MEAN_ANOMALY":296.7605,"EPHEMERIS_TYPE":0,"CLASSIFICATION_TYPE":"U","NORAD_CAT_ID":48980,"ELEMENT_SET_NO":999,"REV_AT_EPOCH":21660,"BSTAR":-0.0006172834,"MEAN_MOTION_DOT":-2.23e-6,"MEAN_MOTION_DDOT":0},{"OBJECT_NAME":"ONEWEB-0263","OBJECT_ID":"2021-060Q","EPOCH":"2025-12-24T04:51:00.218304","MEAN_MOTION":13.16592655,"ECCENTRICITY":0.00017188,"INCLINATION":87.9041,"RA_OF_ASC_NODE":263.6261,"ARG_OF_PERICENTER":63.8078,"MEAN_ANOMALY":296.3229,"EPHEMERIS_TYPE":0,"CLASSIFICATION_TYPE":"U","NORAD_CAT_ID":48981,"ELEMENT_SET_NO":999,"REV_AT_EPOCH":21656,"BSTAR":0.00085988307,"MEAN_MOTION_DOT":3.42e-6,"MEAN_MOTION_DDOT":0},{"OBJECT_NAME":"ONEWEB-0264","OBJECT_ID":"2021-060R","EPOCH":"2025-12-24T05:44:35.694528","MEAN_MOTION":13.16593967,"ECCENTRICITY":0.00018825,"INCLINATION":87.9039,"RA_OF_ASC_NODE":263.6212,"ARG_OF_PERICENTER":72.0854,"MEAN_ANOMALY":288.0482,"EPHEMERIS_TYPE":0,"CLASSIFICATION_TYPE":"U","NORAD_CAT_ID":48982,"ELEMENT_SET_NO":999,"REV_AT_EPOCH":21657,"BSTAR":-0.00015231899,"MEAN_MOTION_DOT":-4.5e-7,"MEAN_MOTION_DDOT":0},{"OBJECT_NAME":"ONEWEB-0266","OBJECT_ID":"2021-060T","EPOCH":"2025-12-24T04:25:55.045632","MEAN_MOTION":13.1659395,"ECCENTRICITY":0.00014185,"INCLINATION":87.9047,"RA_OF_ASC_NODE":263.6193,"ARG_OF_PERICENTER":72.8992,"MEAN_ANOMALY":287.2294,"EPHEMERIS_TYPE":0,"CLASSIFICATION_TYPE":"U","NORAD_CAT_ID":48984,"ELEMENT_SET_NO":999,"REV_AT_EPOCH":21655,"BSTAR":-0.00058312525,"MEAN_MOTION_DOT":-2.1e-6,"MEAN_MOTION_DDOT":0},{"OBJECT_NAME":"ONEWEB-0267","OBJECT_ID":"2021-060U","EPOCH":"2025-12-24T06:31:19.653600","MEAN_MOTION":13.1659282,"ECCENTRICITY":0.00017928,"INCLINATION":87.9044,"RA_OF_ASC_NODE":263.6007,"ARG_OF_PERICENTER":68.4394,"MEAN_ANOMALY":291.6928,"EPHEMERIS_TYPE":0,"CLASSIFICATION_TYPE":"U","NORAD_CAT_ID":48985,"ELEMENT_SET_NO":999,"REV_AT_EPOCH":21657,"BSTAR":0.000416908,"MEAN_MOTION_DOT":1.72e-6,"MEAN_MOTION_DDOT":0},{"OBJECT_NAME":"ONEWEB-0268","OBJECT_ID":"2021-060V","EPOCH":"2025-12-24T05:45:42.723648","MEAN_MOTION":13.165939,"ECCENTRICITY":0.00017074,"INCLINATION":87.9042,"RA_OF_ASC_NODE":263.616,"ARG_OF_PERICENTER":72.5652,"MEAN_ANOMALY":287.5666,"EPHEMERIS_TYPE":0,"CLASSIFICATION_TYPE":"U","NORAD_CAT_ID":48986,"ELEMENT_SET_NO":999,"REV_AT_EPOCH":21683,"BSTAR":-0.00075586825,"MEAN_MOTION_DOT":-2.76e-6,"MEAN_MOTION_DDOT":0},{"OBJECT_NAME":"ONEWEB-0269","OBJECT_ID":"2021-060W","EPOCH":"2025-12-24T07:07:48.610560","MEAN_MOTION":13.16593058,"ECCENTRICITY":0.00017367,"INCLINATION":87.9037,"RA_OF_ASC_NODE":263.6252,"ARG_OF_PERICENTER":81.1124,"MEAN_ANOMALY":279.0203,"EPHEMERIS_TYPE":0,"CLASSIFICATION_TYPE":"U","NORAD_CAT_ID":48987,"ELEMENT_SET_NO":999,"REV_AT_EPOCH":21661,"BSTAR":6.5136515e-5,"MEAN_MOTION_DOT":3.8e-7,"MEAN_MOTION_DDOT":0},{"OBJECT_NAME":"ONEWEB-0270","OBJECT_ID":"2021-060X","EPOCH":"2025-12-24T05:43:27.114528","MEAN_MOTION":13.16592625,"ECCENTRICITY":0.00016526,"INCLINATION":87.9044,"RA_OF_ASC_NODE":263.6181,"ARG_OF_PERICENTER":58.848,"MEAN_ANOMALY":301.2813,"EPHEMERIS_TYPE":0,"CLASSIFICATION_TYPE":"U","NORAD_CAT_ID":48988,"ELEMENT_SET_NO":999,"REV_AT_EPOCH":21664,"BSTAR":-0.00017133227,"MEAN_MOTION_DOT":-5.3e-7,"MEAN_MOTION_DDOT":0},{"OBJECT_NAME":"ONEWEB-0271","OBJECT_ID":"2021-060Y","EPOCH":"2025-12-24T03:35:46.750560","MEAN_MOTION":13.16594566,"ECCENTRICITY":0.00017411,"INCLINATION":87.9051,"RA_OF_ASC_NODE":263.6245,"ARG_OF_PERICENTER":66.4691,"MEAN_ANOMALY":293.6623,"EPHEMERIS_TYPE":0,"CLASSIFICATION_TYPE":"U","NORAD_CAT_ID":48989,"ELEMENT_SET_NO":999,"REV_AT_EPOCH":21663,"BSTAR":-0.00065393378,"MEAN_MOTION_DOT":-2.37e-6,"MEAN_MOTION_DDOT":0},{"OBJECT_NAME":"ONEWEB-0272","OBJECT_ID":"2021-060Z","EPOCH":"2025-12-24T05:57:06.714432","MEAN_MOTION":13.16593405,"ECCENTRICITY":0.00018826,"INCLINATION":87.9037,"RA_OF_ASC_NODE":263.6195,"ARG_OF_PERICENTER":71.4437,"MEAN_ANOMALY":288.6898,"EPHEMERIS_TYPE":0,"CLASSIFICATION_TYPE":"U","NORAD_CAT_ID":48990,"ELEMENT_SET_NO":999,"REV_AT_EPOCH":21659,"BSTAR":-0.00070883333,"MEAN_MOTION_DOT":-2.58e-6,"MEAN_MOTION_DDOT":0},{"OBJECT_NAME":"ONEWEB-0273","OBJECT_ID":"2021-060AA","EPOCH":"2025-12-24T06:29:02.813280","MEAN_MOTION":13.16592058,"ECCENTRICITY":0.00016485,"INCLINATION":87.9046,"RA_OF_ASC_NODE":263.6114,"ARG_OF_PERICENTER":68.109,"MEAN_ANOMALY":292.0217,"EPHEMERIS_TYPE":0,"CLASSIFICATION_TYPE":"U","NORAD_CAT_ID":48991,"ELEMENT_SET_NO":999,"REV_AT_EPOCH":21657,"BSTAR":0.00019102778,"MEAN_MOTION_DOT":8.6e-7,"MEAN_MOTION_DDOT":0},{"OBJECT_NAME":"ONEWEB-0274","OBJECT_ID":"2021-060AB","EPOCH":"2025-12-24T07:05:31.307136","MEAN_MOTION":13.16594077,"ECCENTRICITY":0.00019625,"INCLINATION":87.9038,"RA_OF_ASC_NODE":263.6278,"ARG_OF_PERICENTER":76.991,"MEAN_ANOMALY":283.144,"EPHEMERIS_TYPE":0,"CLASSIFICATION_TYPE":"U","NORAD_CAT_ID":48992,"ELEMENT_SET_NO":999,"REV_AT_EPOCH":21661,"BSTAR":-0.00051566341,"MEAN_MOTION_DOT":-1.84e-6,"MEAN_MOTION_DDOT":0},{"OBJECT_NAME":"ONEWEB-0275","OBJECT_ID":"2021-060AC","EPOCH":"2025-12-24T06:49:33.742848","MEAN_MOTION":13.16593938,"ECCENTRICITY":0.00017919,"INCLINATION":87.9045,"RA_OF_ASC_NODE":263.6019,"ARG_OF_PERICENTER":73.0952,"MEAN_ANOMALY":287.0376,"EPHEMERIS_TYPE":0,"CLASSIFICATION_TYPE":"U","NORAD_CAT_ID":48993,"ELEMENT_SET_NO":999,"REV_AT_EPOCH":21654,"BSTAR":-0.00020937566,"MEAN_MOTION_DOT":-6.7e-7,"MEAN_MOTION_DDOT":0},{"OBJECT_NAME":"ONEWEB-0276","OBJECT_ID":"2021-060AD","EPOCH":"2025-12-24T05:47:59.692704","MEAN_MOTION":13.1659386,"ECCENTRICITY":0.00014721,"INCLINATION":87.9046,"RA_OF_ASC_NODE":263.6097,"ARG_OF_PERICENTER":68.4969,"MEAN_ANOMALY":291.6319,"EPHEMERIS_TYPE":0,"CLASSIFICATION_TYPE":"U","NORAD_CAT_ID":48994,"ELEMENT_SET_NO":999,"REV_AT_EPOCH":21655,"BSTAR":-0.00084292426,"MEAN_MOTION_DOT":-3.09e-6,"MEAN_MOTION_DDOT":0},{"OBJECT_NAME":"ONEWEB-0277","OBJECT_ID":"2021-060AE","EPOCH":"2025-12-24T06:06:15.274080","MEAN_MOTION":13.16593187,"ECCENTRICITY":0.00016847,"INCLINATION":87.9034,"RA_OF_ASC_NODE":263.6303,"ARG_OF_PERICENTER":72.9187,"MEAN_ANOMALY":287.2128,"EPHEMERIS_TYPE":0,"CLASSIFICATION_TYPE":"U","NORAD_CAT_ID":48995,"ELEMENT_SET_NO":999,"REV_AT_EPOCH":21654,"BSTAR":0.00055547739,"MEAN_MOTION_DOT":2.25e-6,"MEAN_MOTION_DDOT":0},{"OBJECT_NAME":"ONEWEB-0278","OBJECT_ID":"2021-060AF","EPOCH":"2025-12-24T04:03:06.924960","MEAN_MOTION":13.16594022,"ECCENTRICITY":0.00014299,"INCLINATION":87.9049,"RA_OF_ASC_NODE":263.6207,"ARG_OF_PERICENTER":78.3125,"MEAN_ANOMALY":281.8166,"EPHEMERIS_TYPE":0,"CLASSIFICATION_TYPE":"U","NORAD_CAT_ID":48996,"ELEMENT_SET_NO":999,"REV_AT_EPOCH":21666,"BSTAR":-0.00037371717,"MEAN_MOTION_DOT":-1.3e-6,"MEAN_MOTION_DDOT":0}]
