ONEWEB-0262             
1 48980U 21060P   25358.24641134 -.00000223  00000+0 -61728-3 0  9991
2 48980  87.9047 263.6026 0001419  63.3672 296.7605 13.16594374216606
ONEWEB-0263             
1 48981U 21060Q   25358.20208586  .00000342  00000+0  85988-3 0  9992
2 48981  87.9041 263.6261 0001718  63.8078 296.3229 13.16592655216562
ONEWEB-0264             
1 48982U 21060R   25358.23930202 -.00000045  00000+0 -15232-3 0  9990
2 48982  87.9039 263.6212 0001882  72.0854 288.0482 13.16593967216579
ONEWEB-0266             
1 48984U 21060T   25358.18466488 -.00000210  00000+0 -58313-3 0  9997
2 48984  87.9047 263.6193 0001418  72.8992 287.2294 13.16593950216556
ONEWEB-0267             
1 48985U 21060U   25358.27175525  .00000172  00000+0  41691-3 0  9993
2 48985  87.9044 263.6007 0001792  68.4394 291.6928 13.16592820216570
ONEWEB-0268             
1 48986U 21060V   25358.24007782 -.00000276  00000+0 -75587-3 0  9998
2 48986  87.9042 263.6160 0001707  72.5652 287.5666 13.16593900216830
ONEWEB-0269             
1 48987U 21060W   25358.29709040  .00000038  00000+0  65137-4 0  9995
2 48987  87.9037 263.6252 0001736  81.1124 279.0203 13.16593058216612
ONEWEB-0270             
1 48988U 21060X   25358.23850827 -.00000053  00000+0 -17133-3 0  9991
2 48988  87.9044 263.6181 0001652  58.8480 301.2813 13.16592625216642
ONEWEB-0271             
1 48989U 21060Y   25358.14984665 -.00000237  00000+0 -65393-3 0  9995
2 48989  87.9051 263.6245 0001741  66.4691 293.6623 13.16594566216638
ONEWEB-0272             
1 48990U 21060Z   25358.24799438 -.00000258  00000+0 -70883-3 0  9993
2 48990  87.9037 263.6195 0001882  71.4437 288.6898 13.16593405216592
ONEWEB-0273             
1 48991U 21060AA  25358.27017145  .00000086  00000+0  19103-3 0  9990
2 48991  87.9046 263.6114 0001648  68.1090 292.0217 13.16592058216577
ONEWEB-0274             
1 48992U 21060AB  25358.29550124 -.00000184  00000+0 -51566-3 0  9992
2 48992  87.9038 263.6278 0001962  76.9910 283.1440 13.16594077216614
ONEWEB-0275             
1 48993U 21060AC  25358.28441832 -.00000067  00000+0 -20938-3 0  9996
2 48993  87.9045 263.6019 0001791  73.0952 287.0376 13.16593938216548
ONEWEB-0276             
1 48994U 21060AD  25358.24166311 -.00000309  00000+0 -84292-3 0  9991
2 48994  87.9046 263.6097 0001472  68.4969 291.6319 13.16593860216551
ONEWEB-0277             
1 48995U 21060AE  25358.25434345  .00000225  00000+0  55548-3 0  9995
2 48995  87.9034 263.6303 0001684  72.9187 287.2128 13.16593187216546
ONEWEB-0278             
1 48996U 21060AF  25358.16883015 -.00000130  00000+0 -37372-3 0  9990
2 48996  87.9049 263.6207 0001429  78.3125 281.8166 13.16594022216669
